SL-16 R/B               
1 22566U 93016B   26057.54225797  .00000251  00000+0  15312-3 0  9993
2 22566  71.0048 238.5951 0011040 329.7185  30.3299 14.15301601700596
COSMOS 2242             
1 22626U 93024A   26057.60348238  .00001823  00000+0  15787-3 0  9994
2 22626  82.5165 277.3227 0016049 348.2191  11.8653 14.96497268778737
SL-16 R/B               
1 22803U 93059B   26057.39565210  .00000269  00000+0  15672-3 0  9992
2 22803  70.9907  34.9421 0018976 232.1300 127.8108 14.17229849677930
ARIANE 40 R/B           
1 22830U 93061H   26057.59550283  .00000198  00000+0  88242-4 0  9996
2 22830  98.4942 126.7009 0009804 321.6562  38.3924 14.32854218692514
COSMOS 2278             
1 23087U 94023A   26057.49408430  .00000396  00000+0  23158-3 0  9999
2 23087  71.0532 198.5185 0007438  35.7322 324.4297 14.14371241643227
SL-16 R/B               
1 23088U 94023B   26057.54560388  .00000050  00000+0  50456-4 0  9996
2 23088  70.9988  94.2927 0005344 296.2932  63.7642 14.15013032644514
SL-16 R/B               
1 23343U 94074B   26057.09261486  .00000436  00000+0  65095-4 0  9996
2 23343  97.7125  88.3793 0005152 256.0727 166.5979 14.79392027685532
SL-16 R/B               
1 23405U 94077B   26057.24889652 -.00000150  00000+0 -52356-4 0  9997
2 23405  70.9848  16.5560 0003666 225.8818 134.2004 14.15563819614615
ARIANE 40+ R/B          
1 23561U 95021B   26057.21181301  .00000281  00000+0  10356-3 0  9999
2 23561  98.4522 128.8486 0007119 167.3341 257.9561 14.39762933617599
SL-16 R/B               
1 23705U 95058B   26057.53798997 -.00000226  00000+0 -91313-4 0  9993
2 23705  71.0206 203.6658 0011129 145.6137 214.5708 14.15493469566275
SL-16 R/B               
1 24298U 96051B   26057.62212708  .00000088  00000+0  74219-4 0  9996
2 24298  70.7590 198.6631 0016072 164.1109 196.0518 14.12412404520085
ORBVIEW 2 (SEASTAR)     
1 24883U 97037A   26057.40492743  .00000289  00000+0  11655-3 0  9993
2 24883  98.8548 221.4190 0003217  94.7506 265.4046 14.35484667506851
