CCSDS_OMM_VERS = 2.0
CREATION_DATE  = 
ORIGINATOR     = 

OBJECT_NAME    = SL-16 R/B
OBJECT_ID      = 1993-016B
CENTER_NAME    = EARTH
REF_FRAME      = TEME
TIME_SYSTEM    = UTC
MEAN_ELEMENT_THEORY = SGP/SGP4

EPOCH          = 2026-02-26T13:00:51.088608
MEAN_MOTION    = 14.15301601
ECCENTRICITY   = .00110401
INCLINATION    = 71.0048
RA_OF_ASC_NODE = 238.5951
ARG_OF_PERICENTER = 329.7185
MEAN_ANOMALY   = 30.3299

EPHEMERIS_TYPE = 0
CLASSIFICATION_TYPE = U
NORAD_CAT_ID   = 22566
ELEMENT_SET_NO = 999
REV_AT_EPOCH   = 70059
BSTAR          = .15311963E-3
MEAN_MOTION_DOT = .251E-5
MEAN_MOTION_DDOT = 0

CCSDS_OMM_VERS = 2.0
CREATION_DATE  = 
ORIGINATOR     = 

OBJECT_NAME    = COSMOS 2242
OBJECT_ID      = 1993-024A
CENTER_NAME    = EARTH
REF_FRAME      = TEME
TIME_SYSTEM    = UTC
MEAN_ELEMENT_THEORY = SGP/SGP4

EPOCH          = 2026-02-26T14:29:00.877632
MEAN_MOTION    = 14.96497268
ECCENTRICITY   = .00160495
INCLINATION    = 82.5165
RA_OF_ASC_NODE = 277.3227
ARG_OF_PERICENTER = 348.2191
MEAN_ANOMALY   = 11.8653

EPHEMERIS_TYPE = 0
CLASSIFICATION_TYPE = U
NORAD_CAT_ID   = 22626
ELEMENT_SET_NO = 999
REV_AT_EPOCH   = 77873
BSTAR          = .15787489E-3
MEAN_MOTION_DOT = .1823E-4
MEAN_MOTION_DDOT = 0

CCSDS_OMM_VERS = 2.0
CREATION_DATE  = 
ORIGINATOR     = 

OBJECT_NAME    = SL-16 R/B
OBJECT_ID      = 1993-059B
CENTER_NAME    = EARTH
REF_FRAME      = TEME
TIME_SYSTEM    = UTC
MEAN_ELEMENT_THEORY = SGP/SGP4

EPOCH          = 2026-02-26T09:29:44.341440
MEAN_MOTION    = 14.17229849
ECCENTRICITY   = .00189766
INCLINATION    = 70.9907
RA_OF_ASC_NODE = 34.9421
ARG_OF_PERICENTER = 232.1300
MEAN_ANOMALY   = 127.8108

EPHEMERIS_TYPE = 0
CLASSIFICATION_TYPE = U
NORAD_CAT_ID   = 22803
ELEMENT_SET_NO = 999
REV_AT_EPOCH   = 67793
BSTAR          = .15672092E-3
MEAN_MOTION_DOT = .269E-5
MEAN_MOTION_DDOT = 0

CCSDS_OMM_VERS = 2.0
CREATION_DATE  = 
ORIGINATOR     = 

OBJECT_NAME    = ARIANE 40 R/B
OBJECT_ID      = 1993-061H
CENTER_NAME    = EARTH
REF_FRAME      = TEME
TIME_SYSTEM    = UTC
MEAN_ELEMENT_THEORY = SGP/SGP4

EPOCH          = 2026-02-26T14:17:31.444512
MEAN_MOTION    = 14.32854218
ECCENTRICITY   = .00098042
INCLINATION    = 98.4942
RA_OF_ASC_NODE = 126.7009
ARG_OF_PERICENTER = 321.6562
MEAN_ANOMALY   = 38.3924

EPHEMERIS_TYPE = 0
CLASSIFICATION_TYPE = U
NORAD_CAT_ID   = 22830
ELEMENT_SET_NO = 999
REV_AT_EPOCH   = 69251
BSTAR          = .88241512E-4
MEAN_MOTION_DOT = .198E-5
MEAN_MOTION_DDOT = 0

CCSDS_OMM_VERS = 2.0
CREATION_DATE  = 
ORIGINATOR     = 

OBJECT_NAME    = COSMOS 2278
OBJECT_ID      = 1994-023A
CENTER_NAME    = EARTH
REF_FRAME      = TEME
TIME_SYSTEM    = UTC
MEAN_ELEMENT_THEORY = SGP/SGP4

EPOCH          = 2026-02-26T11:51:28.883520
MEAN_MOTION    = 14.14371241
ECCENTRICITY   = .00074386
INCLINATION    = 71.0532
RA_OF_ASC_NODE = 198.5185
ARG_OF_PERICENTER = 35.7322
MEAN_ANOMALY   = 324.4297

EPHEMERIS_TYPE = 0
CLASSIFICATION_TYPE = U
NORAD_CAT_ID   = 23087
ELEMENT_SET_NO = 999
REV_AT_EPOCH   = 64322
BSTAR          = .23158097E-3
MEAN_MOTION_DOT = .396E-5
MEAN_MOTION_DDOT = 0

CCSDS_OMM_VERS = 2.0
CREATION_DATE  = 
ORIGINATOR     = 

OBJECT_NAME    = SL-16 R/B
OBJECT_ID      = 1994-023B
CENTER_NAME    = EARTH
REF_FRAME      = TEME
TIME_SYSTEM    = UTC
MEAN_ELEMENT_THEORY = SGP/SGP4

EPOCH          = 2026-02-26T13:05:40.175232
MEAN_MOTION    = 14.15013032
ECCENTRICITY   = .00053441
INCLINATION    = 70.9988
RA_OF_ASC_NODE = 94.2927
ARG_OF_PERICENTER = 296.2932
MEAN_ANOMALY   = 63.7642

EPHEMERIS_TYPE = 0
CLASSIFICATION_TYPE = U
NORAD_CAT_ID   = 23088
ELEMENT_SET_NO = 999
REV_AT_EPOCH   = 64451
BSTAR          = .50455609E-4
MEAN_MOTION_DOT = .5E-6
MEAN_MOTION_DDOT = 0

CCSDS_OMM_VERS = 2.0
CREATION_DATE  = 
ORIGINATOR     = 

OBJECT_NAME    = SL-16 R/B
OBJECT_ID      = 1994-074B
CENTER_NAME    = EARTH
REF_FRAME      = TEME
TIME_SYSTEM    = UTC
MEAN_ELEMENT_THEORY = SGP/SGP4

EPOCH          = 2026-02-26T02:13:21.923904
MEAN_MOTION    = 14.79392027
ECCENTRICITY   = .00051529
INCLINATION    = 97.7125
RA_OF_ASC_NODE = 88.3793
ARG_OF_PERICENTER = 256.0727
MEAN_ANOMALY   = 166.5979

EPHEMERIS_TYPE = 0
CLASSIFICATION_TYPE = U
NORAD_CAT_ID   = 23343
ELEMENT_SET_NO = 999
REV_AT_EPOCH   = 68553
BSTAR          = .65094587E-4
MEAN_MOTION_DOT = .436E-5
MEAN_MOTION_DDOT = 0

CCSDS_OMM_VERS = 2.0
CREATION_DATE  = 
ORIGINATOR     = 

OBJECT_NAME    = SL-16 R/B
OBJECT_ID      = 1994-077B
CENTER_NAME    = EARTH
REF_FRAME      = TEME
TIME_SYSTEM    = UTC
MEAN_ELEMENT_THEORY = SGP/SGP4

EPOCH          = 2026-02-26T05:58:24.659328
MEAN_MOTION    = 14.15563819
ECCENTRICITY   = .00036669
INCLINATION    = 70.9848
RA_OF_ASC_NODE = 16.5560
ARG_OF_PERICENTER = 225.8818
MEAN_ANOMALY   = 134.2004

EPHEMERIS_TYPE = 0
CLASSIFICATION_TYPE = U
NORAD_CAT_ID   = 23405
ELEMENT_SET_NO = 999
REV_AT_EPOCH   = 61461
BSTAR          = -.52356094E-4
MEAN_MOTION_DOT = -.15E-5
MEAN_MOTION_DDOT = 0

CCSDS_OMM_VERS = 2.0
CREATION_DATE  = 
ORIGINATOR     = 

OBJECT_NAME    = ARIANE 40+ R/B
OBJECT_ID      = 1995-021B
CENTER_NAME    = EARTH
REF_FRAME      = TEME
TIME_SYSTEM    = UTC
MEAN_ELEMENT_THEORY = SGP/SGP4

EPOCH          = 2026-02-26T05:05:00.644064
MEAN_MOTION    = 14.39762933
ECCENTRICITY   = .00071191
INCLINATION    = 98.4522
RA_OF_ASC_NODE = 128.8486
ARG_OF_PERICENTER = 167.3341
MEAN_ANOMALY   = 257.9561

EPHEMERIS_TYPE = 0
CLASSIFICATION_TYPE = U
NORAD_CAT_ID   = 23561
ELEMENT_SET_NO = 999
REV_AT_EPOCH   = 61759
BSTAR          = .10356124E-3
MEAN_MOTION_DOT = .281E-5
MEAN_MOTION_DDOT = 0

CCSDS_OMM_VERS = 2.0
CREATION_DATE  = 
ORIGINATOR     = 

OBJECT_NAME    = SL-16 R/B
OBJECT_ID      = 1995-058B
CENTER_NAME    = EARTH
REF_FRAME      = TEME
TIME_SYSTEM    = UTC
MEAN_ELEMENT_THEORY = SGP/SGP4

EPOCH          = 2026-02-26T12:54:42.333408
MEAN_MOTION    = 14.15493469
ECCENTRICITY   = .00111299
INCLINATION    = 71.0206
RA_OF_ASC_NODE = 203.6658
ARG_OF_PERICENTER = 145.6137
MEAN_ANOMALY   = 214.5708

EPHEMERIS_TYPE = 0
CLASSIFICATION_TYPE = U
NORAD_CAT_ID   = 23705
ELEMENT_SET_NO = 999
REV_AT_EPOCH   = 56627
BSTAR          = -.91312995E-4
MEAN_MOTION_DOT = -.226E-5
MEAN_MOTION_DDOT = 0

CCSDS_OMM_VERS = 2.0
CREATION_DATE  = 
ORIGINATOR     = 

OBJECT_NAME    = SL-16 R/B
OBJECT_ID      = 1996-051B
CENTER_NAME    = EARTH
REF_FRAME      = TEME
TIME_SYSTEM    = UTC
MEAN_ELEMENT_THEORY = SGP/SGP4

EPOCH          = 2026-02-26T14:55:51.779712
MEAN_MOTION    = 14.12412404
ECCENTRICITY   = .00160725
INCLINATION    = 70.7590
RA_OF_ASC_NODE = 198.6631
ARG_OF_PERICENTER = 164.1109
MEAN_ANOMALY   = 196.0518

EPHEMERIS_TYPE = 0
CLASSIFICATION_TYPE = U
NORAD_CAT_ID   = 24298
ELEMENT_SET_NO = 999
REV_AT_EPOCH   = 52008
BSTAR          = .74218973E-4
MEAN_MOTION_DOT = .88E-6
MEAN_MOTION_DDOT = 0

CCSDS_OMM_VERS = 2.0
CREATION_DATE  = 
ORIGINATOR     = 

OBJECT_NAME    = ORBVIEW 2 (SEASTAR)
OBJECT_ID      = 1997-037A
CENTER_NAME    = EARTH
REF_FRAME      = TEME
TIME_SYSTEM    = UTC
MEAN_ELEMENT_THEORY = SGP/SGP4

EPOCH          = 2026-02-26T09:43:05.729952
MEAN_MOTION    = 14.35484667
ECCENTRICITY   = .00032173
INCLINATION    = 98.8548
RA_OF_ASC_NODE = 221.4190
ARG_OF_PERICENTER = 94.7506
MEAN_ANOMALY   = 265.4046

EPHEMERIS_TYPE = 0
CLASSIFICATION_TYPE = U
NORAD_CAT_ID   = 24883
ELEMENT_SET_NO = 999
REV_AT_EPOCH   = 50685
BSTAR          = .11655478E-3
MEAN_MOTION_DOT = .289E-5
MEAN_MOTION_DDOT = 0

